<?xml version="1.0" encoding="UTF-8"?>
<ndm xmlns:xsi="http://www.w3.org/2001/XMLSchema-instance" xsi:noNamespaceSchemaLocation="https://sanaregistry.org/r/ndmxml_unqualified/ndmxml-2.0.0-master-2.0.xsd">
<omm id="CCSDS_OMM_VERS" version="2.0">
<header><CREATION_DATE/><ORIGINATOR/></header><body><segment><metadata><OBJECT_NAME>QIANFAN-65</OBJECT_NAME><OBJECT_ID>2025-016L</OBJECT_ID><CENTER_NAME>EARTH</CENTER_NAME><REF_FRAME>TEME</REF_FRAME><TIME_SYSTEM>UTC</TIME_SYSTEM><MEAN_ELEMENT_THEORY>SGP4</MEAN_ELEMENT_THEORY></metadata><data><meanElements><EPOCH>2026-01-25T13:50:11.602752</EPOCH><MEAN_MOTION>13.50986763</MEAN_MOTION><ECCENTRICITY>.00134387</ECCENTRICITY><INCLINATION>88.9739</INCLINATION><RA_OF_ASC_NODE>98.5278</RA_OF_ASC_NODE><ARG_OF_PERICENTER>208.5287</ARG_OF_PERICENTER><MEAN_ANOMALY>151.5130</MEAN_ANOMALY></meanElements><tleParameters><EPHEMERIS_TYPE>0</EPHEMERIS_TYPE><CLASSIFICATION_TYPE>U</CLASSIFICATION_TYPE><NORAD_CAT_ID>62795</NORAD_CAT_ID><ELEMENT_SET_NO>999</ELEMENT_SET_NO><REV_AT_EPOCH>5316</REV_AT_EPOCH><BSTAR>.17303242E-3</BSTAR><MEAN_MOTION_DOT>.124E-5</MEAN_MOTION_DOT><MEAN_MOTION_DDOT>0</MEAN_MOTION_DDOT></tleParameters></data></segment></body></omm>
<omm id="CCSDS_OMM_VERS" version="2.0">
<header><CREATION_DATE/><ORIGINATOR/></header><body><segment><metadata><OBJECT_NAME>QIANFAN-66</OBJECT_NAME><OBJECT_ID>2025-016M</OBJECT_ID><CENTER_NAME>EARTH</CENTER_NAME><REF_FRAME>TEME</REF_FRAME><TIME_SYSTEM>UTC</TIME_SYSTEM><MEAN_ELEMENT_THEORY>SGP4</MEAN_ELEMENT_THEORY></metadata><data><meanElements><EPOCH>2026-01-25T14:31:34.641984</EPOCH><MEAN_MOTION>13.50991651</MEAN_MOTION><ECCENTRICITY>.0014698</ECCENTRICITY><INCLINATION>88.9758</INCLINATION><RA_OF_ASC_NODE>98.5035</RA_OF_ASC_NODE><ARG_OF_PERICENTER>204.5749</ARG_OF_PERICENTER><MEAN_ANOMALY>155.4703</MEAN_ANOMALY></meanElements><tleParameters><EPHEMERIS_TYPE>0</EPHEMERIS_TYPE><CLASSIFICATION_TYPE>U</CLASSIFICATION_TYPE><NORAD_CAT_ID>62796</NORAD_CAT_ID><ELEMENT_SET_NO>999</ELEMENT_SET_NO><REV_AT_EPOCH>5321</REV_AT_EPOCH><BSTAR>.2096183E-3</BSTAR><MEAN_MOTION_DOT>.147E-5</MEAN_MOTION_DOT><MEAN_MOTION_DDOT>0</MEAN_MOTION_DDOT></tleParameters></data></segment></body></omm>
<omm id="CCSDS_OMM_VERS" version="2.0">
<header><CREATION_DATE/><ORIGINATOR/></header><body><segment><metadata><OBJECT_NAME>QIANFAN-67</OBJECT_NAME><OBJECT_ID>2025-016N</OBJECT_ID><CENTER_NAME>EARTH</CENTER_NAME><REF_FRAME>TEME</REF_FRAME><TIME_SYSTEM>UTC</TIME_SYSTEM><MEAN_ELEMENT_THEORY>SGP4</MEAN_ELEMENT_THEORY></metadata><data><meanElements><EPOCH>2026-01-25T14:37:29.707968</EPOCH><MEAN_MOTION>13.50995886</MEAN_MOTION><ECCENTRICITY>.00144296</ECCENTRICITY><INCLINATION>88.9748</INCLINATION><RA_OF_ASC_NODE>98.5244</RA_OF_ASC_NODE><ARG_OF_PERICENTER>211.6041</ARG_OF_PERICENTER><MEAN_ANOMALY>148.4245</MEAN_ANOMALY></meanElements><tleParameters><EPHEMERIS_TYPE>0</EPHEMERIS_TYPE><CLASSIFICATION_TYPE>U</CLASSIFICATION_TYPE><NORAD_CAT_ID>62797</NORAD_CAT_ID><ELEMENT_SET_NO>999</ELEMENT_SET_NO><REV_AT_EPOCH>5318</REV_AT_EPOCH><BSTAR>.19028229E-3</BSTAR><MEAN_MOTION_DOT>.135E-5</MEAN_MOTION_DOT><MEAN_MOTION_DDOT>0</MEAN_MOTION_DDOT></tleParameters></data></segment></body></omm>
<omm id="CCSDS_OMM_VERS" version="2.0">
<header><CREATION_DATE/><ORIGINATOR/></header><body><segment><metadata><OBJECT_NAME>QIANFAN-68</OBJECT_NAME><OBJECT_ID>2025-016P</OBJECT_ID><CENTER_NAME>EARTH</CENTER_NAME><REF_FRAME>TEME</REF_FRAME><TIME_SYSTEM>UTC</TIME_SYSTEM><MEAN_ELEMENT_THEORY>SGP4</MEAN_ELEMENT_THEORY></metadata><data><meanElements><EPOCH>2026-01-25T14:25:40.985184</EPOCH><MEAN_MOTION>13.50987830</MEAN_MOTION><ECCENTRICITY>.00145457</ECCENTRICITY><INCLINATION>88.9752</INCLINATION><RA_OF_ASC_NODE>98.5720</RA_OF_ASC_NODE><ARG_OF_PERICENTER>209.8259</ARG_OF_PERICENTER><MEAN_ANOMALY>150.2064</MEAN_ANOMALY></meanElements><tleParameters><EPHEMERIS_TYPE>0</EPHEMERIS_TYPE><CLASSIFICATION_TYPE>U</CLASSIFICATION_TYPE><NORAD_CAT_ID>62798</NORAD_CAT_ID><ELEMENT_SET_NO>999</ELEMENT_SET_NO><REV_AT_EPOCH>5316</REV_AT_EPOCH><BSTAR>.20761385E-3</BSTAR><MEAN_MOTION_DOT>.146E-5</MEAN_MOTION_DOT><MEAN_MOTION_DDOT>0</MEAN_MOTION_DDOT></tleParameters></data></segment></body></omm>
<omm id="CCSDS_OMM_VERS" version="2.0">
<header><CREATION_DATE/><ORIGINATOR/></header><body><segment><metadata><OBJECT_NAME>QIANFAN-69</OBJECT_NAME><OBJECT_ID>2025-016Q</OBJECT_ID><CENTER_NAME>EARTH</CENTER_NAME><REF_FRAME>TEME</REF_FRAME><TIME_SYSTEM>UTC</TIME_SYSTEM><MEAN_ELEMENT_THEORY>SGP4</MEAN_ELEMENT_THEORY></metadata><data><meanElements><EPOCH>2026-01-25T14:49:22.069056</EPOCH><MEAN_MOTION>13.50988151</MEAN_MOTION><ECCENTRICITY>.0015241</ECCENTRICITY><INCLINATION>88.9731</INCLINATION><RA_OF_ASC_NODE>98.4303</RA_OF_ASC_NODE><ARG_OF_PERICENTER>211.2964</ARG_OF_PERICENTER><MEAN_ANOMALY>148.7281</MEAN_ANOMALY></meanElements><tleParameters><EPHEMERIS_TYPE>0</EPHEMERIS_TYPE><CLASSIFICATION_TYPE>U</CLASSIFICATION_TYPE><NORAD_CAT_ID>62799</NORAD_CAT_ID><ELEMENT_SET_NO>999</ELEMENT_SET_NO><REV_AT_EPOCH>5320</REV_AT_EPOCH><BSTAR>.197542E-3</BSTAR><MEAN_MOTION_DOT>.14E-5</MEAN_MOTION_DOT><MEAN_MOTION_DDOT>0</MEAN_MOTION_DDOT></tleParameters></data></segment></body></omm>
<omm id="CCSDS_OMM_VERS" version="2.0">
<header><CREATION_DATE/><ORIGINATOR/></header><body><segment><metadata><OBJECT_NAME>QIANFAN-70</OBJECT_NAME><OBJECT_ID>2025-016R</OBJECT_ID><CENTER_NAME>EARTH</CENTER_NAME><REF_FRAME>TEME</REF_FRAME><TIME_SYSTEM>UTC</TIME_SYSTEM><MEAN_ELEMENT_THEORY>SGP4</MEAN_ELEMENT_THEORY></metadata><data><meanElements><EPOCH>2026-01-25T15:13:08.142528</EPOCH><MEAN_MOTION>13.50991965</MEAN_MOTION><ECCENTRICITY>.00151771</ECCENTRICITY><INCLINATION>88.9752</INCLINATION><RA_OF_ASC_NODE>98.5763</RA_OF_ASC_NODE><ARG_OF_PERICENTER>201.2536</ARG_OF_PERICENTER><MEAN_ANOMALY>158.7987</MEAN_ANOMALY></meanElements><tleParameters><EPHEMERIS_TYPE>0</EPHEMERIS_TYPE><CLASSIFICATION_TYPE>U</CLASSIFICATION_TYPE><NORAD_CAT_ID>62800</NORAD_CAT_ID><ELEMENT_SET_NO>999</ELEMENT_SET_NO><REV_AT_EPOCH>5316</REV_AT_EPOCH><BSTAR>.21073024E-3</BSTAR><MEAN_MOTION_DOT>.148E-5</MEAN_MOTION_DOT><MEAN_MOTION_DDOT>0</MEAN_MOTION_DDOT></tleParameters></data></segment></body></omm>
<omm id="CCSDS_OMM_VERS" version="2.0">
<header><CREATION_DATE/><ORIGINATOR/></header><body><segment><metadata><OBJECT_NAME>QIANFAN-71</OBJECT_NAME><OBJECT_ID>2025-016S</OBJECT_ID><CENTER_NAME>EARTH</CENTER_NAME><REF_FRAME>TEME</REF_FRAME><TIME_SYSTEM>UTC</TIME_SYSTEM><MEAN_ELEMENT_THEORY>SGP4</MEAN_ELEMENT_THEORY></metadata><data><meanElements><EPOCH>2026-01-25T15:07:05.914848</EPOCH><MEAN_MOTION>13.50991296</MEAN_MOTION><ECCENTRICITY>.00150418</ECCENTRICITY><INCLINATION>88.9746</INCLINATION><RA_OF_ASC_NODE>98.5536</RA_OF_ASC_NODE><ARG_OF_PERICENTER>214.8735</ARG_OF_PERICENTER><MEAN_ANOMALY>145.1432</MEAN_ANOMALY></meanElements><tleParameters><EPHEMERIS_TYPE>0</EPHEMERIS_TYPE><CLASSIFICATION_TYPE>U</CLASSIFICATION_TYPE><NORAD_CAT_ID>62801</NORAD_CAT_ID><ELEMENT_SET_NO>999</ELEMENT_SET_NO><REV_AT_EPOCH>5316</REV_AT_EPOCH><BSTAR>.21470807E-3</BSTAR><MEAN_MOTION_DOT>.151E-5</MEAN_MOTION_DOT><MEAN_MOTION_DDOT>0</MEAN_MOTION_DDOT></tleParameters></data></segment></body></omm>
<omm id="CCSDS_OMM_VERS" version="2.0">
<header><CREATION_DATE/><ORIGINATOR/></header><body><segment><metadata><OBJECT_NAME>QIANFAN-72</OBJECT_NAME><OBJECT_ID>2025-016T</OBJECT_ID><CENTER_NAME>EARTH</CENTER_NAME><REF_FRAME>TEME</REF_FRAME><TIME_SYSTEM>UTC</TIME_SYSTEM><MEAN_ELEMENT_THEORY>SGP4</MEAN_ELEMENT_THEORY></metadata><data><meanElements><EPOCH>2026-01-25T13:44:07.939968</EPOCH><MEAN_MOTION>13.50991219</MEAN_MOTION><ECCENTRICITY>.00180464</ECCENTRICITY><INCLINATION>88.9736</INCLINATION><RA_OF_ASC_NODE>98.5687</RA_OF_ASC_NODE><ARG_OF_PERICENTER>223.7881</ARG_OF_PERICENTER><MEAN_ANOMALY>136.1840</MEAN_ANOMALY></meanElements><tleParameters><EPHEMERIS_TYPE>0</EPHEMERIS_TYPE><CLASSIFICATION_TYPE>U</CLASSIFICATION_TYPE><NORAD_CAT_ID>62802</NORAD_CAT_ID><ELEMENT_SET_NO>999</ELEMENT_SET_NO><REV_AT_EPOCH>5314</REV_AT_EPOCH><BSTAR>.18568238E-3</BSTAR><MEAN_MOTION_DOT>.132E-5</MEAN_MOTION_DOT><MEAN_MOTION_DDOT>0</MEAN_MOTION_DDOT></tleParameters></data></segment></body></omm>

</ndm>
