QIANFAN-65              
1 62795U 25016L   26025.57652318  .00000124  00000+0  17303-3 0  9998
2 62795  88.9739  98.5278 0013438 208.5287 151.5130 13.50986763 53164
QIANFAN-66              
1 62796U 25016M   26025.60526206  .00000147  00000+0  20962-3 0  9999
2 62796  88.9758  98.5035 0014698 204.5749 155.4703 13.50991651 53212
QIANFAN-67              
1 62797U 25016N   26025.60937162  .00000135  00000+0  19028-3 0  9995
2 62797  88.9748  98.5244 0014429 211.6041 148.4245 13.50995886 53183
QIANFAN-68              
1 62798U 25016P   26025.60116881  .00000146  00000+0  20761-3 0  9991
2 62798  88.9752  98.5720 0014545 209.8259 150.2064 13.50987830 53165
QIANFAN-69              
1 62799U 25016Q   26025.61761654  .00000140  00000+0  19754-3 0  9991
2 62799  88.9731  98.4303 0015241 211.2964 148.7281 13.50988151 53208
QIANFAN-70              
1 62800U 25016R   26025.63412202  .00000148  00000+0  21073-3 0  9993
2 62800  88.9752  98.5763 0015177 201.2536 158.7987 13.50991965 53163
QIANFAN-71              
1 62801U 25016S   26025.62992957  .00000151  00000+0  21471-3 0  9999
2 62801  88.9746  98.5536 0015041 214.8735 145.1432 13.50991296 53168
QIANFAN-72              
1 62802U 25016T   26025.57231412  .00000132  00000+0  18568-3 0  9998
2 62802  88.9736  98.5687 0018046 223.7881 136.1840 13.50991219 53140
